IRIDIUM 36 [-]          
1 24967U 97056C   24085.82853798  .00001636  00000+0  54916-3 0  9997
2 24967  86.4029   1.2779 0002275  81.4161 278.7294 14.36697866387825
IRIDIUM 39 [-]          
1 25042U 97069D   24085.93894657  .00003082  00000+0  82691-3 0  9995
2 25042  86.3931  43.1569 0018686   9.7585 350.3977 14.47788247384074
IRIDIUM 38 [-]          
1 25043U 97069E   24085.93172260  .00001780  00000+0  59274-3 0  9999
2 25043  86.3933  61.6315 0003857 106.0486 254.1136 14.37135555381551
IRIDIUM 42 [-]          
1 25077U 97077A   24085.95598036  .00001717  00000+0  59120-3 0  9990
2 25077  86.3926  67.2463 0002688  99.6006 260.5495 14.35446691376874
IRIDIUM 44 [-]          
1 25078U 97077B   24085.92933728  .00001861  00000+0  59386-3 0  9993
2 25078  86.3954  50.3783 0004032  75.4406 284.7240 14.39272698379209
IRIDIUM 45 [-]          
1 25104U 97082A   24085.94399619  .00035780  00000+0  21134-2 0  9992
2 25104  86.3688 261.2531 0166649 181.3146 178.7675 15.00330094384369
IRIDIUM 24 [-]          
1 25105U 97082B   24085.91169828  .00001637  00000+0  50261-3 0  9995
2 25105  86.3851 270.1325 0013383 114.0052 246.2551 14.41038779378633
